COSMOS 2419 (714)       
1 28915U 05050A   17173.42881106 -.00000035  00000-0  00000-0 0  9993
2 28915  65.4992  65.6764 0017203 354.4354 148.3242  2.13107022 89444
COSMOS 2425 (716)       
1 29670U 06062A   17173.94579175 -.00000043  00000-0  10000-3 0  9996
2 29670  65.4581 304.6676 0020184 349.5212 241.9688  2.13105007 81655
COSMOS 2426 (717)       
1 29671U 06062B   17173.67596259 -.00000044  00000-0  10000-3 0  9990
2 29671  65.4769 304.7679 0018502 160.9617  81.8125  2.13103002 81653
COSMOS 2424 (715)       
1 29672U 06062C   17173.68385715 -.00000044  00000-0  10000-3 0  9995
2 29672  65.4616 304.6881 0018024 159.6350 264.4863  2.13102364 81655
COSMOS 2433 (720)       
1 32275U 07052A   17173.78338997 -.00000034  00000-0  10000-3 0  9998
2 32275  65.5141  65.4423 0002491 303.4481 355.5351  2.13104670 75166
COSMOS 2432 (719)       
1 32276U 07052B   17173.22688321 -.00000036  00000-0  10000-3 0  9999
2 32276  65.5242  65.5333 0012784 340.6284 204.2981  2.13104189 75153
COSMOS 2434 (721)       
1 32393U 07065A   17173.96465958 -.00000043  00000-0  00000-0 0  9997
2 32393  65.0740 303.8137 0005692 112.9332 214.6798  2.13103014 73879
COSMOS 2436 (723)       
1 32395U 07065C   17173.51247733 -.00000044  00000-0  10000-3 0  9994
2 32395  65.0854 303.8757 0014306   6.4998  22.9292  2.13104419 73804
COSMOS 2443 (725)       
1 33379U 08046B   17173.48951264 -.00000035  00000-0  00000-0 0  9990
2 33379  65.4423  64.8344 0011550 179.0504 154.8700  2.13099440 68021
COSMOS 2456 (730)       
1 36111U 09070A   17173.68103542  .00000098  00000-0  00000-0 0  9993
2 36111  64.1802 183.3893 0006548 298.0798 343.0614  2.13103002 58530
COSMOS 2457 (733)       
1 36112U 09070B   17173.76808442  .00000096  00000-0  00000-0 0  9992
2 36112  64.1623 183.3050 0006359 192.6468 283.8053  2.13101678 58546
COSMOS 2458 (734)       
1 36113U 09070C   17173.69319676  .00000097  00000-0  10000-3 0  9996
2 36113  64.1680 183.3154 0002881 299.1031 167.9063  2.13102097 58549
COSMOS 2459 (731)       
1 36400U 10007A   17173.81090916 -.00000034  00000-0  10000-3 0  9996
2 36400  65.4217  64.5473 0028967 354.0924 188.0411  2.13102337 56891
COSMOS 2461 (735)       
1 36401U 10007B   17173.46264729 -.00000035  00000-0  10000-3 0  9994
2 36401  65.4160  64.5358 0007801  58.7838 126.7871  2.13102466 56888
COSMOS 2460 (732)       
1 36402U 10007C   17173.45703326 -.00000035  00000-0  10000-3 0  9995
2 36402  65.4051  64.5092 0001955  23.4533 199.0701  2.13101800 56884
COSMOS 2465 (737)       
1 37138U 10041B   17172.44666113 -.00000043  00000-0  00000-0 0  9995
2 37138  64.6747 303.8522 0036140 169.8446 118.3303  2.13106747 52932
COSMOS 2464 (736)       
1 37139U 10041C   17173.68742941 -.00000044  00000-0  00000-0 0  9998
2 37139  64.6808 303.8075 0022808  16.7641 325.9059  2.13102705 52953
COSMOS 2471 (701K)      
1 37372U 11009A   17173.66905867 -.00000034  00000-0  00000-0 0  9997
2 37372  65.4029  64.4483 0007021 240.1205 281.3171  2.13107666 49168
COSMOS 2474 (742)       
1 37829U 11055A   17173.67130789  .00000099  00000-0  00000-0 0  9999
2 37829  64.5056 183.9565 0010974 253.7727 239.6724  2.13101865 44534
COSMOS 2476 (744)       
1 37867U 11064A   17173.69816088  .00000098  00000-0  00000-0 0  9995
2 37867  64.4851 184.0259 0020099 246.8257 313.1693  2.13102065 43883
COSMOS 2477 (745)       
1 37868U 11064B   17173.76756455  .00000097  00000-0  00000-0 0  9994
2 37868  64.4929 184.0689 0017971 248.4715 183.8774  2.13101908 43842
COSMOS 2475 (743)       
1 37869U 11064C   17173.67716052  .00000099  00000-0  00000-0 0  9996
2 37869  64.5002 184.0636 0022990 271.1767  48.2136  2.13102104 43840
COSMOS 2485 (747)       
1 39155U 13019A   17173.63405175  .00000100  00000-0  00000-0 0  9998
2 39155  64.6542 184.0597 0020380 242.1735 313.6514  2.13102090 32357
COSMOS 2492 (754)       
1 39620U 14012A   17173.75402427 -.00000035  00000-0  10000-3 0  9991
2 39620  65.2955  64.4337 0016063 335.9105 346.1248  2.13103463 25304
COSMOS 2500 (755)       
1 40001U 14032A   17173.58010622 -.00000035  00000-0  00000-0 0  9997
2 40001  65.2349  64.4357 0004120 210.7922 200.8502  2.13102986 23526
COSMOS 2501 (702K)      
1 40315U 14075A   17173.70698610 -.00000045  00000-0  00000-0 0  9996
2 40315  64.4071 305.1473 0014943 204.2064 110.7478  2.13098700 19928
COSMOS 2514 (751)       
1 41330U 16008A   17173.74032330 -.00000035  00000-0  00000-0 0  9996
2 41330  65.0372  64.5736 0007475 217.6378 136.9194  2.13103503 10680
COSMOS 2516 (753)       
1 41554U 16032A   17173.51162539 -.00000045  00000-0  00000-0 0  9992
2 41554  64.6288 304.9213 0011382 213.2259 218.4436  2.13101647  8298
